{
  "type": "FeatureCollection",
  "features": [
    {
      "type": "Feature",
      "id": "evt_8c0a4de2e1b1c9103250",
      "geometry": {
        "type": "Point",
        "coordinates": [
          139.4,
          35.4
        ]
      },
      "properties": {
        "event_id": "evt_8c0a4de2e1b1c9103250",
        "published_at": "2026-10-03",
        "disease_id": "influenza",
        "disease_name_zh": "流行性感冒",
        "location": "日本神奈川县",
        "continent": "亚洲",
        "source_org": "TEEPR亮新闻（引述日本厚生劳动省、台湾疾管署）",
        "source_type": "other_open_source",
        "source": "https://www.teepr.com/1941322/mollylin/%E7%A7%8B%E5%86%AC%E7%96%BE%E7%97%85",
        "description_cn": "日本流感疫情连续9周上升,第38周通报31428例,冲绳、东京、爱知等地病例激增,逼近警报水平。",
        "data_quality_score": 92
      }
    },
    {
      "type": "Feature",
      "id": "evt_a9d8fac2f261d2d63856",
      "geometry": {
        "type": "Point",
        "coordinates": [
          137.3,
          35.0
        ]
      },
      "properties": {
        "event_id": "evt_a9d8fac2f261d2d63856",
        "published_at": "2026-10-03",
        "disease_id": "influenza",
        "disease_name_zh": "流行性感冒",
        "location": "日本爱知县",
        "continent": "亚洲",
        "source_org": "TEEPR亮新闻（引述日本厚生劳动省、台湾疾管署）",
        "source_type": "other_open_source",
        "source": "https://www.teepr.com/1941322/mollylin/%E7%A7%8B%E5%86%AC%E7%96%BE%E7%97%85",
        "description_cn": "日本流感疫情连续9周上升,第38周通报31428例,冲绳、东京、爱知等地病例激增,逼近警报水平。",
        "data_quality_score": 92
      }
    },
    {
      "type": "Feature",
      "id": "evt_98bf730d6ac01449542b",
      "geometry": {
        "type": "Point",
        "coordinates": [
          139.8,
          35.7
        ]
      },
      "properties": {
        "event_id": "evt_98bf730d6ac01449542b",
        "published_at": "2026-10-03",
        "disease_id": "influenza",
        "disease_name_zh": "流行性感冒",
        "location": "日本东京都",
        "continent": "亚洲",
        "source_org": "TEEPR亮新闻（引述日本厚生劳动省、台湾疾管署）",
        "source_type": "other_open_source",
        "source": "https://www.teepr.com/1941322/mollylin/%E7%A7%8B%E5%86%AC%E7%96%BE%E7%97%85",
        "description_cn": "日本流感疫情连续9周上升,第38周通报31428例,冲绳、东京、爱知等地病例激增,逼近警报水平。",
        "data_quality_score": 92
      }
    },
    {
      "type": "Feature",
      "id": "evt_63e4328a808823ccf4ee",
      "geometry": {
        "type": "Point",
        "coordinates": [
          128.0,
          26.6
        ]
      },
      "properties": {
        "event_id": "evt_63e4328a808823ccf4ee",
        "published_at": "2026-10-03",
        "disease_id": "influenza",
        "disease_name_zh": "流行性感冒",
        "location": "日本冲绳县",
        "continent": "亚洲",
        "source_org": "TEEPR亮新闻（引述日本厚生劳动省、台湾疾管署）",
        "source_type": "other_open_source",
        "source": "https://www.teepr.com/1941322/mollylin/%E7%A7%8B%E5%86%AC%E7%96%BE%E7%97%85",
        "description_cn": "日本流感疫情连续9周上升,第38周通报31428例,冲绳、东京、爱知等地病例激增,逼近警报水平。",
        "data_quality_score": 92
      }
    },
    {
      "type": "Feature",
      "id": "evt_3bcfcc8fef828ad68466",
      "geometry": {
        "type": "Point",
        "coordinates": [
          138.0,
          36.0
        ]
      },
      "properties": {
        "event_id": "evt_3bcfcc8fef828ad68466",
        "published_at": "2026-10-03",
        "disease_id": "influenza",
        "disease_name_zh": "流行性感冒",
        "location": "日本",
        "continent": "亚洲",
        "source_org": "台湾疾管署（引用日本厚生劳动省监测数据）",
        "source_type": "other_open_source",
        "source": "https://www.chinatimes.com/realtimenews/20261003001409-260405",
        "description_cn": "日本流感疫情连续9周上升,第38周定点平均病例8.48例,约为去年同期10倍,冲绳等地最严重。",
        "data_quality_score": 92
      }
    },
    {
      "type": "Feature",
      "id": "evt_d3f2984a069994eae567",
      "geometry": {
        "type": "Point",
        "coordinates": [
          108.6,
          14.0
        ]
      },
      "properties": {
        "event_id": "evt_d3f2984a069994eae567",
        "published_at": "2026-10-03",
        "disease_id": "unclassified-c019a533",
        "disease_name_zh": "类鼻疽",
        "location": "越南嘉莱省",
        "continent": "亚洲",
        "source_org": "vietnam.vn",
        "source_type": "other_open_source",
        "source": "https://www.vietnam.vn/zh-cn/gia-lai-ghi-nhan-ca-thu-3-benh-whitmore",
        "description_cn": "越南嘉莱省报告一例类鼻疽病例,患者接触受污染土壤后感染,已住院治疗后出院。",
        "data_quality_score": 80
      }
    },
    {
      "type": "Feature",
      "id": "evt_537fcc800a8c05c1fd27",
      "geometry": {
        "type": "Point",
        "coordinates": [
          121.0,
          23.7
        ]
      },
      "properties": {
        "event_id": "evt_537fcc800a8c05c1fd27",
        "published_at": "2026-10-03",
        "disease_id": "influenza",
        "disease_name_zh": "流行性感冒",
        "location": "中国台湾",
        "continent": "亚洲",
        "source_org": "LIFE",
        "source_type": "other_open_source",
        "source": "https://life.tw/article/%E5%87%BA%E5%9C%8B%E6%B3%A8%E6%84%8F-%E6%97%A5%E6%9C%AC%E6%B5%81%E6%84%9F%E9%80%A39%E9%80%B1%E5%A2%9E%E5%8A%A0-%E9%80%99%E4%B8%89%E5%9C%B0-%E8%BC%83%E5%9A%B4%E9%87%8D-%E4%B8%AD%E6%B8%AF%E9%9F%93%E6%98%9F%E9%83%BD%E5%8D%87%E6%BA%AB-3168089",
        "description_cn": "日本流感连续9周上升,第38周病例较前周增53.1%,为去年同期10倍。",
        "data_quality_score": 92
      }
    },
    {
      "type": "Feature",
      "id": "evt_2aa24e9bf3362e5c4c17",
      "geometry": {
        "type": "Point",
        "coordinates": [
          -81.5,
          27.7
        ]
      },
      "properties": {
        "event_id": "evt_2aa24e9bf3362e5c4c17",
        "published_at": "2026-10-03",
        "disease_id": "dengue",
        "disease_name_zh": "登革热",
        "location": "美国佛罗里达州",
        "continent": "北美洲",
        "source_org": "Thecanadianpressnews",
        "source_type": "news_media",
        "source": "https://www.thecanadianpressnews.ca/health/floridas-dengue-outbreak-is-now-the-largest-in-the-continental-us-in-decades/article_f75222b5-0847-503d-82b8-a24596a0c049.html",
        "description_cn": "2026年10月03日 美国佛罗里达州发生登革热相关疫情,今年已报告1例死亡(坦帕市老年女性),为美国大陆数十年来最大规",
        "data_quality_score": 92
      }
    },
    {
      "type": "Feature",
      "id": "evt_1f874de02bca3233c6bd",
      "geometry": {
        "type": "Point",
        "coordinates": [
          -97.0,
          38.0
        ]
      },
      "properties": {
        "event_id": "evt_1f874de02bca3233c6bd",
        "published_at": "2026-10-02",
        "disease_id": "dengue",
        "disease_name_zh": "登革热",
        "location": "皮纳拉斯县,帕斯科县,希尔斯伯勒县",
        "continent": "北美洲",
        "source_org": "Bay News 9",
        "source_type": "news_media",
        "source": "https://baynews9.com/fl/tampa/news/2026/10/01/pinellas-county-urges-residents-to-do-their-part-as-dengue-west-nile-activity-grows",
        "description_cn": "美国佛罗里达州坦帕湾地区报告179例登革热确诊病例,两县延长紧急状态以加强灭蚊。",
        "data_quality_score": 92
      }
    },
    {
      "type": "Feature",
      "id": "evt_cb27b47d902a99d2513e",
      "geometry": {
        "type": "Point",
        "coordinates": [
          24.0,
          -29.0
        ]
      },
      "properties": {
        "event_id": "evt_cb27b47d902a99d2513e",
        "published_at": "2026-10-02",
        "disease_id": "measles",
        "disease_name_zh": "麻疹",
        "location": "南非",
        "continent": "非洲",
        "source_org": "南非国家传染病研究所（NICD）",
        "source_type": "official_health_authority",
        "source": "https://www.nicd.ac.za/weekly-measles-and-rubella-situation-report-week-38-of-2026",
        "description_cn": "南非2026年第38周麻疹周报显示全国累计报告5306例确诊病例,新增269例,多省均有分布。",
        "data_quality_score": 100
      }
    },
    {
      "type": "Feature",
      "id": "evt_723c48019408f381304e",
      "geometry": {
        "type": "Point",
        "coordinates": [
          -119.4,
          36.8
        ]
      },
      "properties": {
        "event_id": "evt_723c48019408f381304e",
        "published_at": "2026-10-02",
        "disease_id": "unclassified-0dd445de",
        "disease_name_zh": "流行性腮腺炎",
        "location": "美国加利福尼亚州圣地亚哥州立大学",
        "continent": "北美洲",
        "source_org": "Yahoo Sports / SI",
        "source_type": "news_media",
        "source": "https://sports.yahoo.com/articles/college-football-program-lists-32-200702677.html",
        "description_cn": "美国圣地亚哥州立大学橄榄球队暴发腮腺炎疫情,至少14人确诊,32名球员被列入伤病报告。",
        "data_quality_score": 80
      }
    },
    {
      "type": "Feature",
      "id": "evt_89b5f14fef3186675eca",
      "geometry": {
        "type": "Point",
        "coordinates": [
          2.5,
          48.8
        ]
      },
      "properties": {
        "event_id": "evt_89b5f14fef3186675eca",
        "published_at": "2026-10-02",
        "disease_id": "mpox",
        "disease_name_zh": "猴痘",
        "location": "法国",
        "continent": "欧洲",
        "source_org": "法国公共卫生局",
        "source_type": "other_open_source",
        "source": "https://www.santepubliquefrance.fr/variole-b-mpox/bulletin-national/variole-b-mpox-en-france-du-1er-janvier-au-31-aout-2026",
        "description_cn": "法国2026年1至8月报告359例猴痘病例,78%为Ib分支,33例住院,主要为成人男性。",
        "data_quality_score": 92
      }
    },
    {
      "type": "Feature",
      "id": "evt_427222ec3bb7f1fd9653",
      "geometry": {
        "type": "Point",
        "coordinates": [
          -95.0,
          60.0
        ]
      },
      "properties": {
        "event_id": "evt_427222ec3bb7f1fd9653",
        "published_at": "2026-10-02",
        "disease_id": "covid-19",
        "disease_name_zh": "新型冠状病毒感染",
        "location": "加拿大",
        "continent": "北美洲",
        "source_org": "加拿大公共卫生局（PHAC）",
        "source_type": "other_open_source",
        "source": "https://health-infobase.canada.ca/respiratory-virus-surveillance",
        "description_cn": "加拿大第38周呼吸道病毒监测:流感和新冠阳性率仍低但呈上升趋势,每周报告52起暴发。",
        "data_quality_score": 92
      }
    },
    {
      "type": "Feature",
      "id": "evt_55c31515183a3855d259",
      "geometry": {
        "type": "Point",
        "coordinates": [
          121.0,
          23.7
        ]
      },
      "properties": {
        "event_id": "evt_55c31515183a3855d259",
        "published_at": "2026-10-02",
        "disease_id": "dengue",
        "disease_name_zh": "登革热",
        "location": "中国台湾",
        "continent": "亚洲",
        "source_org": "Newtalk新闻（引述台湾疾管署）",
        "source_type": "news_media",
        "source": "https://today.line.me/tw/v3/article/nXpqWKJ",
        "description_cn": "台湾彰化县新增1例本土登革热病例,距首例住家约110米,初步研判为社区群聚。",
        "data_quality_score": 92
      }
    },
    {
      "type": "Feature",
      "id": "evt_b843b6bc4611155327d8",
      "geometry": {
        "type": "Point",
        "coordinates": [
          121.0,
          23.7
        ]
      },
      "properties": {
        "event_id": "evt_b843b6bc4611155327d8",
        "published_at": "2026-10-02",
        "disease_id": "dengue",
        "disease_name_zh": "登革热",
        "location": "中国台湾",
        "continent": "亚洲",
        "source_org": "创新闻/彰化县卫生局",
        "source_type": "other_open_source",
        "source": "https://life.tw/article/%E5%BD%B0%E5%8C%96%E5%B8%82%E7%99%BB%E9%9D%A9%E7%86%B1%E5%A2%9E%E7%AC%AC2%E4%BE%8B-%E8%A1%9B%E7%94%9F%E5%B1%80%E8%A8%AD%E7%AB%99%E6%8F%AA%E9%9A%B1%E5%BD%A2%E6%84%9F%E6%9F%93%E8%80%85-3167823",
        "description_cn": "彰化县新增1例本土登革热,为今年第2例,与首例相距约110米,疑社区群聚。",
        "data_quality_score": 92
      }
    },
    {
      "type": "Feature",
      "id": "evt_20bf846cbf578143d8b2",
      "geometry": {
        "type": "Point",
        "coordinates": [
          -55.0,
          -10.0
        ]
      },
      "properties": {
        "event_id": "evt_20bf846cbf578143d8b2",
        "published_at": "2026-10-02",
        "disease_id": "dengue",
        "disease_name_zh": "登革热",
        "location": "洪都拉斯",
        "continent": "南美洲",
        "source_org": "南美侨报网",
        "source_type": "other_open_source",
        "source": "https://www.br-cn.com/static/content/news/nm_news/2026-10-02/1555630611530659548.html",
        "description_cn": "洪都拉斯今年累计登革热病例超1万例,死亡4例,多地疫情活跃。",
        "data_quality_score": 92
      }
    },
    {
      "type": "Feature",
      "id": "evt_f3fe27c4a1abbb53f1e9",
      "geometry": {
        "type": "Point",
        "coordinates": [
          121.0,
          23.7
        ]
      },
      "properties": {
        "event_id": "evt_f3fe27c4a1abbb53f1e9",
        "published_at": "2026-10-02",
        "disease_id": "dengue",
        "disease_name_zh": "登革热",
        "location": "中国台湾",
        "continent": "亚洲",
        "source_org": "台湾卫福部疾管署",
        "source_type": "news_media",
        "source": "https://today.line.me/tw/v3/article/JPy02ry",
        "description_cn": "台湾彰化县出现3年来首起本土登革热社区群聚,新增1例确诊,距首例住家约110米,患者住院治疗中。",
        "data_quality_score": 92
      }
    },
    {
      "type": "Feature",
      "id": "evt_7c04da75f9a1d56d13e0",
      "geometry": {
        "type": "Point",
        "coordinates": [
          118.1,
          37.4
        ]
      },
      "properties": {
        "event_id": "evt_7c04da75f9a1d56d13e0",
        "published_at": "2026-10-02",
        "disease_id": "influenza",
        "disease_name_zh": "流行性感冒",
        "location": "中国河南省",
        "continent": "亚洲",
        "source_org": "Outbreak News Today",
        "source_type": "news_media",
        "source": "https://outbreaknewstoday.substack.com/p/china-reports-two-additional-h9n2-8f2",
        "description_cn": "中国新增2例H9N2禽流感病例,均为1岁女童,分别来自河南和广东,均为轻度病例。",
        "data_quality_score": 92
      }
    },
    {
      "type": "Feature",
      "id": "evt_5435946c8c340e473119",
      "geometry": {
        "type": "Point",
        "coordinates": [
          113.3,
          23.1
        ]
      },
      "properties": {
        "event_id": "evt_5435946c8c340e473119",
        "published_at": "2026-10-02",
        "disease_id": "influenza",
        "disease_name_zh": "流行性感冒",
        "location": "中国广东省",
        "continent": "亚洲",
        "source_org": "Outbreak News Today",
        "source_type": "news_media",
        "source": "https://outbreaknewstoday.substack.com/p/china-reports-two-additional-h9n2-8f2",
        "description_cn": "中国新增2例H9N2禽流感病例,均为1岁女童,分别来自河南和广东,均为轻度病例。",
        "data_quality_score": 92
      }
    },
    {
      "type": "Feature",
      "id": "evt_1e402fabf9b03abba947",
      "geometry": {
        "type": "Point",
        "coordinates": [
          -122.4,
          37.8
        ]
      },
      "properties": {
        "event_id": "evt_1e402fabf9b03abba947",
        "published_at": "2026-10-02",
        "disease_id": "influenza",
        "disease_name_zh": "流行性感冒",
        "location": "美国旧金山",
        "continent": "北美洲",
        "source_org": "旧金山公共卫生局（SFDPH）",
        "source_type": "academic",
        "source": "https://www.worldjournal.com/wj/story/121519/9790585",
        "description_cn": "旧金山报告本季首例流感死亡病例,卫生局呼吁民众接种疫苗。",
        "data_quality_score": 100
      }
    },
    {
      "type": "Feature",
      "id": "evt_f09c23fcb33d3efc3863",
      "geometry": {
        "type": "Point",
        "coordinates": [
          121.0,
          23.7
        ]
      },
      "properties": {
        "event_id": "evt_f09c23fcb33d3efc3863",
        "published_at": "2026-10-02",
        "disease_id": "influenza",
        "disease_name_zh": "流行性感冒",
        "location": "中国台湾",
        "continent": "亚洲",
        "source_org": "旺得富",
        "source_type": "other_open_source",
        "source": "https://wantrich.chinatimes.com/news/20261002900102-420501",
        "description_cn": "台湾流感疫情升温,5岁男童感染A流后家人相继染疫,阿嬷发展肺炎住院两周,专家建议及早接种疫苗。",
        "data_quality_score": 92
      }
    },
    {
      "type": "Feature",
      "id": "evt_8ec0da20acf001b866b0",
      "geometry": {
        "type": "Point",
        "coordinates": [
          121.0,
          23.7
        ]
      },
      "properties": {
        "event_id": "evt_8ec0da20acf001b866b0",
        "published_at": "2026-10-02",
        "disease_id": "dengue",
        "disease_name_zh": "登革热",
        "location": "中国台湾",
        "continent": "亚洲",
        "source_org": "自由时报",
        "source_type": "other_open_source",
        "source": "https://health.ltn.com.tw/article/breakingnews/5592305",
        "description_cn": "台南新增1例越南境外移入登革热病例,返台后发烧确诊为第1型,为今年第8例。",
        "data_quality_score": 92
      }
    },
    {
      "type": "Feature",
      "id": "evt_4e16fd11037c3061ca1c",
      "geometry": {
        "type": "Point",
        "coordinates": [
          2.0,
          46.0
        ]
      },
      "properties": {
        "event_id": "evt_4e16fd11037c3061ca1c",
        "published_at": "2026-10-02",
        "disease_id": "mpox",
        "disease_name_zh": "猴痘",
        "location": "法属",
        "continent": "欧洲",
        "source_org": "法国公共卫生局",
        "source_type": "other_open_source",
        "source": "https://www.santepubliquefrance.fr/regions-et-territoires/ocean-indien/bulletin-regional/surveillance-sanitaire-a-la-reunion-bulletin-du-2-octobre-2026",
        "description_cn": "法属留尼汪2026年10月卫生监测公报:流感疫情活跃,钩端螺旋体病累计246例3死亡,Mpox 24例输入5例本土。",
        "data_quality_score": 92
      }
    },
    {
      "type": "Feature",
      "id": "evt_263b0eb27059d0c105f6",
      "geometry": {
        "type": "Point",
        "coordinates": [
          121.0,
          23.7
        ]
      },
      "properties": {
        "event_id": "evt_263b0eb27059d0c105f6",
        "published_at": "2026-10-02",
        "disease_id": "dengue",
        "disease_name_zh": "登革热",
        "location": "中国台湾",
        "continent": "亚洲",
        "source_org": "彰化县政府卫生局",
        "source_type": "other_open_source",
        "source": "https://molihua.org/mh-2578586",
        "description_cn": "台湾彰化市新增1例本土登革热,为今年第2例本土个案,初步认定为社区群聚事件。",
        "data_quality_score": 92
      }
    },
    {
      "type": "Feature",
      "id": "evt_7a0bfe89899a067cba31",
      "geometry": {
        "type": "Point",
        "coordinates": [
          -81.5,
          27.7
        ]
      },
      "properties": {
        "event_id": "evt_7a0bfe89899a067cba31",
        "published_at": "2026-10-02",
        "disease_id": "dengue",
        "disease_name_zh": "登革热",
        "location": "美国佛罗里达州希尔斯伯勒县",
        "continent": "北美洲",
        "source_org": "WFLA",
        "source_type": "other_open_source",
        "source": "https://www.wfla.com/news/hillsborough-county/hillsborough-county-tops-200-locally-acquired-dengue-fever-cases-fdoh",
        "description_cn": "佛州希尔斯伯勒县登革热疫情持续,本周新增62例本土病例,累计252例,已致1人死亡。",
        "data_quality_score": 92
      }
    },
    {
      "type": "Feature",
      "id": "evt_219dae5fd66d4b3ba1b7",
      "geometry": {
        "type": "Point",
        "coordinates": [
          -53.1,
          3.9
        ]
      },
      "properties": {
        "event_id": "evt_219dae5fd66d4b3ba1b7",
        "published_at": "2026-10-02",
        "disease_id": "unclassified-2b4038da",
        "disease_name_zh": "基孔肯雅热",
        "location": "法属圭亚那",
        "continent": "南美洲",
        "source_org": "Santepubliquefrance",
        "source_type": "other_open_source",
        "source": "https://www.santepubliquefrance.fr/regions-et-territoires/guyane/bulletin-regional/chikungunya-et-dengue-en-guyane-bulletin-du-2-octobre-2026",
        "description_cn": "法属圭亚那基孔肯雅热疫情持续,累计确诊2017例,多个区域仍处于流行或聚集阶段。",
        "data_quality_score": 80
      }
    },
    {
      "type": "Feature",
      "id": "evt_95e09e956ca5295b900b",
      "geometry": {
        "type": "Point",
        "coordinates": [
          72.3,
          35.0
        ]
      },
      "properties": {
        "event_id": "evt_95e09e956ca5295b900b",
        "published_at": "2026-10-02",
        "disease_id": "dengue",
        "disease_name_zh": "登革热",
        "location": "巴基斯坦开伯尔-普什图省",
        "continent": "亚洲",
        "source_org": "DAWN",
        "source_type": "other_open_source",
        "source": "https://www.dawn.com/news/2034084/kohat-continues-to-record-highest-number-of-dengue-cases",
        "description_cn": "巴基斯坦开伯尔-普什图省本周新增446例登革热,累计2,219例,科哈特县为疫情最严重地区。",
        "data_quality_score": 92
      }
    },
    {
      "type": "Feature",
      "id": "evt_69b2b45cf4cdfd2cdb92",
      "geometry": {
        "type": "Point",
        "coordinates": [
          121.6,
          25.0
        ]
      },
      "properties": {
        "event_id": "evt_69b2b45cf4cdfd2cdb92",
        "published_at": "2026-10-02",
        "disease_id": "influenza",
        "disease_name_zh": "流行性感冒",
        "location": "台北",
        "continent": "亚洲",
        "source_org": "Chinatimes",
        "source_type": "other_open_source",
        "source": "https://www.chinatimes.com/newspapers/20261002000582-260114",
        "description_cn": "台湾流感季家庭传播预防提醒文章,以个案为例说明接种疫苗重要性。",
        "data_quality_score": 92
      }
    },
    {
      "type": "Feature",
      "id": "evt_14d12d507149dde439a8",
      "geometry": {
        "type": "Point",
        "coordinates": [
          -77.7,
          41.0
        ]
      },
      "properties": {
        "event_id": "evt_14d12d507149dde439a8",
        "published_at": "2026-10-01",
        "disease_id": "measles",
        "disease_name_zh": "麻疹",
        "location": "美国宾夕法尼亚州",
        "continent": "北美洲",
        "source_org": "314 Action",
        "source_type": "other_open_source",
        "source": "https://www.314action.org/news/press-releases/pennsylvania-reports-fifth-measles-death-amid-worst-outbreak-in-u-s",
        "description_cn": "美国宾夕法尼亚州发生35年来最严重麻疹疫情,已致943人感染、176人住院、5人死亡。",
        "data_quality_score": 92
      }
    },
    {
      "type": "Feature",
      "id": "evt_66bd15e855ce11dd2ebd",
      "geometry": {
        "type": "Point",
        "coordinates": [
          121.0,
          23.7
        ]
      },
      "properties": {
        "event_id": "evt_66bd15e855ce11dd2ebd",
        "published_at": "2026-10-01",
        "disease_id": "dengue",
        "disease_name_zh": "登革热",
        "location": "中国台湾",
        "continent": "亚洲",
        "source_org": "卫福部疾病管制署",
        "source_type": "news_media",
        "source": "https://today.line.me/tw/v3/article/BEmp9KW",
        "description_cn": "台湾彰化县新增1例本土登革热病例,初步研判与9月18日个案形成社区群聚。",
        "data_quality_score": 92
      }
    },
    {
      "type": "Feature",
      "id": "evt_6d03c396bc9898e5501e",
      "geometry": {
        "type": "Point",
        "coordinates": [
          -81.5,
          27.7
        ]
      },
      "properties": {
        "event_id": "evt_6d03c396bc9898e5501e",
        "published_at": "2026-10-01",
        "disease_id": "dengue",
        "disease_name_zh": "登革热",
        "location": "美国佛罗里达州皮纳拉斯县",
        "continent": "北美洲",
        "source_org": "WFLA",
        "source_type": "other_open_source",
        "source": "https://www.wfla.com/news/pinellas-county/pinellas-county-extends-state-of-local-emergency-for-dengue-fever/amp",
        "description_cn": "美国佛州皮纳拉斯县因登革热疫情延长地方紧急状态,8月以来确诊7例,坦帕湾地区共179例。",
        "data_quality_score": 92
      }
    },
    {
      "type": "Feature",
      "id": "evt_2339d42b06d5241b5f72",
      "geometry": {
        "type": "Point",
        "coordinates": [
          -97.0,
          38.0
        ]
      },
      "properties": {
        "event_id": "evt_2339d42b06d5241b5f72",
        "published_at": "2026-10-01",
        "disease_id": "measles",
        "disease_name_zh": "麻疹",
        "location": "美国宾夕法尼亚州兰开斯特县",
        "continent": "北美洲",
        "source_org": "WHYY News",
        "source_type": "news_media",
        "source": "https://whyy.org/articles/5th-measles-deaths-pennsylvania",
        "description_cn": "美国宾夕法尼亚州麻疹疫情持续蔓延,已出现第5例死亡病例,疫区集中在兰开斯特县。",
        "data_quality_score": 92
      }
    },
    {
      "type": "Feature",
      "id": "evt_d4adb869a88e298337b7",
      "geometry": {
        "type": "Point",
        "coordinates": [
          -77.7,
          41.0
        ]
      },
      "properties": {
        "event_id": "evt_d4adb869a88e298337b7",
        "published_at": "2026-10-01",
        "disease_id": "measles",
        "disease_name_zh": "麻疹",
        "location": "美国宾夕法尼亚州",
        "continent": "北美洲",
        "source_org": "WHYY News",
        "source_type": "news_media",
        "source": "https://whyy.org/articles/5th-measles-deaths-pennsylvania",
        "description_cn": "美国宾夕法尼亚州麻疹疫情持续蔓延,已出现第5例死亡病例,疫区集中在兰开斯特县。",
        "data_quality_score": 92
      }
    },
    {
      "type": "Feature",
      "id": "evt_a349294875be263e0283",
      "geometry": {
        "type": "Point",
        "coordinates": [
          105.0,
          35.0
        ]
      },
      "properties": {
        "event_id": "evt_a349294875be263e0283",
        "published_at": "2026-10-01",
        "disease_id": "unclassified-72cae785",
        "disease_name_zh": "霍乱",
        "location": "赞比亚",
        "continent": "亚洲",
        "source_org": "央广网",
        "source_type": "other_open_source",
        "source": "https://www.cnr.cn/newscenter/sq/20261001/t20261001_527830774.shtml",
        "description_cn": "赞比亚暴发霍乱疫情,5省共报告304例病例,含11例死亡。",
        "data_quality_score": 80
      }
    },
    {
      "type": "Feature",
      "id": "evt_83e6a71e244c3d8ab1b1",
      "geometry": {
        "type": "Point",
        "coordinates": [
          121.774,
          12.8797
        ]
      },
      "properties": {
        "event_id": "evt_83e6a71e244c3d8ab1b1",
        "published_at": "2026-10-01",
        "disease_id": "dengue",
        "disease_name_zh": "登革热",
        "location": "菲律宾奎松市",
        "continent": "亚洲",
        "source_org": "菲律宾论坛报",
        "source_type": "other_open_source",
        "source": "https://tribune.net.ph/2026/10/01/qc-logs-alarming-dengue-cases-spike",
        "description_cn": "奎松市今年1至9月报告5589例登革热感染和24例死亡,近期周感染率上升。",
        "data_quality_score": 92
      }
    },
    {
      "type": "Feature",
      "id": "evt_426255ab2a56bfcad1ac",
      "geometry": {
        "type": "Point",
        "coordinates": [
          -81.5,
          27.7
        ]
      },
      "properties": {
        "event_id": "evt_426255ab2a56bfcad1ac",
        "published_at": "2026-10-01",
        "disease_id": "dengue",
        "disease_name_zh": "登革热",
        "location": "美国佛罗里达州希尔斯伯勒县",
        "continent": "北美洲",
        "source_org": "WTSP",
        "source_type": "other_open_source",
        "source": "https://www.wtsp.com/article/news/health/tampa-dengue-survivor-illness-story/67-8251c098-2ea7-4d68-8d5f-5705082e6fb9",
        "description_cn": "美国佛罗里达州希尔斯伯勒县出现登革热病例,当地确诊第3例。",
        "data_quality_score": 92
      }
    },
    {
      "type": "Feature",
      "id": "evt_9ef2ba01d57806665f8b",
      "geometry": {
        "type": "Point",
        "coordinates": [
          9.0,
          51.0
        ]
      },
      "properties": {
        "event_id": "evt_9ef2ba01d57806665f8b",
        "published_at": "2026-10-01",
        "disease_id": "unclassified-b2b15e0a",
        "disease_name_zh": "辛德比斯病毒",
        "location": "德国巴登-符腾堡州",
        "continent": "欧洲",
        "source_org": "RKI",
        "source_type": "other_open_source",
        "source": "https://www.rki.de/DE/Aktuelles/Publikationen/Epidemiologisches-Bulletin/2026/40_26.html",
        "description_cn": "2026年10月01日 德国巴登-符腾堡州发生辛德比斯病毒感染相关疫情,1例(首例本土有症状病例)",
        "data_quality_score": 80
      }
    },
    {
      "type": "Feature",
      "id": "evt_b07241919883f22b9b46",
      "geometry": {
        "type": "Point",
        "coordinates": [
          121.0,
          23.7
        ]
      },
      "properties": {
        "event_id": "evt_b07241919883f22b9b46",
        "published_at": "2026-10-01",
        "disease_id": "dengue",
        "disease_name_zh": "登革热",
        "location": "中国台湾",
        "continent": "亚洲",
        "source_org": "CDC",
        "source_type": "official_health_authority",
        "source": "https://www.cdc.gov.tw/Bulletin/Detail/CdbgopQoFEjbaRObY4JebA?typeId=9",
        "description_cn": "台湾彰化县新增1例本土登革热病例,为2023年以来首起社区群聚事件。",
        "data_quality_score": 100
      }
    },
    {
      "type": "Feature",
      "id": "evt_fa0dd49ecde5a9f1c899",
      "geometry": {
        "type": "Point",
        "coordinates": [
          -77.7,
          41.0
        ]
      },
      "properties": {
        "event_id": "evt_fa0dd49ecde5a9f1c899",
        "published_at": "2026-10-01",
        "disease_id": "measles",
        "disease_name_zh": "麻疹",
        "location": "美国宾夕法尼亚州",
        "continent": "北美洲",
        "source_org": "Nbcmiami",
        "source_type": "other_open_source",
        "source": "https://www.nbcmiami.com/news/national-international/pennsylvania-reports-5th-measles-related-death/3866596",
        "description_cn": "宾夕法尼亚州报告第5例麻疹相关死亡病例,全州累计943例确诊感染。",
        "data_quality_score": 92
      }
    },
    {
      "type": "Feature",
      "id": "evt_c0f9e35f1f107e92b5c5",
      "geometry": {
        "type": "Point",
        "coordinates": [
          121.774,
          12.8797
        ]
      },
      "properties": {
        "event_id": "evt_c0f9e35f1f107e92b5c5",
        "published_at": "2026-10-01",
        "disease_id": "dengue",
        "disease_name_zh": "登革热",
        "location": "菲律宾阿古桑德尔苏尔省",
        "continent": "亚洲",
        "source_org": "Substack",
        "source_type": "news_media",
        "source": "https://outbreaknewstoday.substack.com/p/philippines-agusan-del-sur-health",
        "description_cn": "菲律宾阿古桑德尔苏尔省宣布全省登革热暴发,7个多月674例。",
        "data_quality_score": 92
      }
    },
    {
      "type": "Feature",
      "id": "evt_b35364af798338eaab99",
      "geometry": {
        "type": "Point",
        "coordinates": [
          113.5,
          22.2
        ]
      },
      "properties": {
        "event_id": "evt_b35364af798338eaab99",
        "published_at": "2026-10-01",
        "disease_id": "influenza",
        "disease_name_zh": "流行性感冒",
        "location": "中国澳门",
        "continent": "亚洲",
        "source_org": "GOV",
        "source_type": "other_open_source",
        "source": "https://www.gov.mo/zh-hant/news/1270957",
        "description_cn": "澳门一中学班级8名学生出现流感样症状,4人甲流阳性。",
        "data_quality_score": 92
      }
    },
    {
      "type": "Feature",
      "id": "evt_73944d98a5aa6f7a7f47",
      "geometry": {
        "type": "Point",
        "coordinates": [
          120.0,
          -5.0
        ]
      },
      "properties": {
        "event_id": "evt_73944d98a5aa6f7a7f47",
        "published_at": "2026-09-30",
        "disease_id": "influenza",
        "disease_name_zh": "流行性感冒",
        "location": "印度尼西亚",
        "continent": "亚洲",
        "source_org": "Kompas",
        "source_type": "other_open_source",
        "source": "https://www.kompas.id/artikel/influenza-cases-increase-who-recommends-vaccine-composition-in-2027",
        "description_cn": "WHO推荐2027年南半球流感疫苗配方,印尼第38周流感阳性率56%,疫情处于中等水平。",
        "data_quality_score": 92
      }
    },
    {
      "type": "Feature",
      "id": "evt_ffce5452081f674ad172",
      "geometry": {
        "type": "Point",
        "coordinates": [
          29.9,
          1.9
        ]
      },
      "properties": {
        "event_id": "evt_ffce5452081f674ad172",
        "published_at": "2026-09-30",
        "disease_id": "ebola-virus-disease",
        "disease_name_zh": "埃博拉",
        "location": "刚果民主共和国伊图里省",
        "continent": "非洲",
        "source_org": "欧洲疾病预防控制中心",
        "source_type": "official_health_authority",
        "source": "https://www.ecdc.europa.eu/en/ebola-outbreak-democratic-republic-congo-and-uganda",
        "description_cn": "刚果(金)持续暴发本迪布焦型埃博拉疫情,累计确诊逾八千例,死亡近四千例,疫情波及七省63个卫生区。",
        "data_quality_score": 100
      }
    },
    {
      "type": "Feature",
      "id": "evt_76ebb3444d9598e61cdc",
      "geometry": {
        "type": "Point",
        "coordinates": [
          2.5,
          48.8
        ]
      },
      "properties": {
        "event_id": "evt_76ebb3444d9598e61cdc",
        "published_at": "2026-09-30",
        "disease_id": "dengue",
        "disease_name_zh": "登革热",
        "location": "法国",
        "continent": "欧洲",
        "source_org": "法国公共卫生局",
        "source_type": "other_open_source",
        "source": "https://www.santepubliquefrance.fr/maladies-a-transmission-vectorielle/chikungunya/bulletin-national/chikungunya-dengue-zika-et-25",
        "description_cn": "法国本土报告基孔肯雅热、登革热、西尼罗病毒等多种蚊媒传染病本地传播病例。",
        "data_quality_score": 92
      }
    },
    {
      "type": "Feature",
      "id": "evt_7acf2c6a4994310dbb77",
      "geometry": {
        "type": "Point",
        "coordinates": [
          113.5,
          22.2
        ]
      },
      "properties": {
        "event_id": "evt_7acf2c6a4994310dbb77",
        "published_at": "2026-09-30",
        "disease_id": "enterovirus-infection",
        "disease_name_zh": "肠病毒感染",
        "location": "中国澳门",
        "continent": "亚洲",
        "source_org": "华侨报",
        "source_type": "other_open_source",
        "source": "http://www.vakiodaily.com/news/view/id/716515",
        "description_cn": "澳门近期流感病毒和肠病毒活跃程度上升,流感阳性率超预警水平,群集感染事件频发,卫生局呼吁高风险人群接种疫苗。",
        "data_quality_score": 92
      }
    },
    {
      "type": "Feature",
      "id": "evt_b733a8f6db8f08105469",
      "geometry": {
        "type": "Point",
        "coordinates": [
          71.7,
          22.4
        ]
      },
      "properties": {
        "event_id": "evt_b733a8f6db8f08105469",
        "published_at": "2026-09-29",
        "disease_id": "dengue",
        "disease_name_zh": "登革热",
        "location": "印度古吉拉特邦",
        "continent": "亚洲",
        "source_org": "NDTV",
        "source_type": "other_open_source",
        "source": "https://www.ndtv.com/health/dengue-cases-down-by-39-per-cent-in-gujarat-as-government-steps-up-mosquito-control-12113004",
        "description_cn": "印度古吉拉特邦加强蚊媒疾病防控,疟疾和登革热病例同比下降,登革热检出2099例阳性。",
        "data_quality_score": 92
      }
    },
    {
      "type": "Feature",
      "id": "evt_abd4a4eaae90f5e3bb41",
      "geometry": {
        "type": "Point",
        "coordinates": [
          30.0,
          -2.0
        ]
      },
      "properties": {
        "event_id": "evt_abd4a4eaae90f5e3bb41",
        "published_at": "2026-09-29",
        "disease_id": "malaria",
        "disease_name_zh": "疟疾",
        "location": "卢旺达",
        "continent": "非洲",
        "source_org": "AllAfrica",
        "source_type": "other_open_source",
        "source": "https://allafrica.com/stories/202609290012.html",
        "description_cn": "卢旺达2025-2026季度疟疾发病率从76/1000降至72/1000,月度病例从峰值逐步回落。",
        "data_quality_score": 92
      }
    },
    {
      "type": "Feature",
      "id": "evt_22381e946072c1398866",
      "geometry": {
        "type": "Point",
        "coordinates": [
          121.774,
          12.8797
        ]
      },
      "properties": {
        "event_id": "evt_22381e946072c1398866",
        "published_at": "2026-09-29",
        "disease_id": "dengue",
        "disease_name_zh": "登革热",
        "location": "菲律宾那牙市",
        "continent": "亚洲",
        "source_org": "菲律宾星报",
        "source_type": "other_open_source",
        "source": "https://www.philstar.com/nation/2026/09/29/2559763/camsur-declares-state-calamity-amid-rising-dengue-cases",
        "description_cn": "菲律宾卡马里内斯苏尔省因登革热激增宣布灾难状态,已有1233例确诊和18例死亡。",
        "data_quality_score": 92
      }
    },
    {
      "type": "Feature",
      "id": "evt_76fedd686f1b5e54cd66",
      "geometry": {
        "type": "Point",
        "coordinates": [
          121.774,
          12.8797
        ]
      },
      "properties": {
        "event_id": "evt_76fedd686f1b5e54cd66",
        "published_at": "2026-09-29",
        "disease_id": "dengue",
        "disease_name_zh": "登革热",
        "location": "菲律宾卡马里内斯苏尔省",
        "continent": "亚洲",
        "source_org": "菲律宾星报",
        "source_type": "other_open_source",
        "source": "https://www.philstar.com/nation/2026/09/29/2559763/camsur-declares-state-calamity-amid-rising-dengue-cases",
        "description_cn": "菲律宾卡马里内斯苏尔省因登革热激增宣布灾难状态,已有1233例确诊和18例死亡。",
        "data_quality_score": 92
      }
    },
    {
      "type": "Feature",
      "id": "evt_d32bba085bd2a370bc78",
      "geometry": {
        "type": "Point",
        "coordinates": [
          121.774,
          12.8797
        ]
      },
      "properties": {
        "event_id": "evt_d32bba085bd2a370bc78",
        "published_at": "2026-09-29",
        "disease_id": "dengue",
        "disease_name_zh": "登革热",
        "location": "菲律宾阿尔拜省",
        "continent": "亚洲",
        "source_org": "菲律宾星报",
        "source_type": "other_open_source",
        "source": "https://www.philstar.com/nation/2026/09/29/2559763/camsur-declares-state-calamity-amid-rising-dengue-cases",
        "description_cn": "菲律宾卡马里内斯苏尔省因登革热激增宣布灾难状态,已有1233例确诊和18例死亡。",
        "data_quality_score": 92
      }
    },
    {
      "type": "Feature",
      "id": "evt_72b50ae1ad9019a3abe1",
      "geometry": {
        "type": "Point",
        "coordinates": [
          -80.8,
          23.0
        ]
      },
      "properties": {
        "event_id": "evt_72b50ae1ad9019a3abe1",
        "published_at": "2026-09-29",
        "disease_id": "covid-19",
        "disease_name_zh": "新型冠状病毒感染",
        "location": "古巴",
        "continent": "北美洲",
        "source_org": "商务部网站（驻古巴共和国大使馆经济商务处）",
        "source_type": "other_open_source",
        "source": "https://finance.stockstar.com/IG2026093000002190.shtml",
        "description_cn": "古巴多病叠加传播,今年截至8月登革热累计7133例。",
        "data_quality_score": 92
      }
    },
    {
      "type": "Feature",
      "id": "evt_998e3118bb4bdd81615d",
      "geometry": {
        "type": "Point",
        "coordinates": [
          113.5,
          22.2
        ]
      },
      "properties": {
        "event_id": "evt_998e3118bb4bdd81615d",
        "published_at": "2026-09-29",
        "disease_id": "enterovirus-infection",
        "disease_name_zh": "肠病毒感染",
        "location": "中国澳门",
        "continent": "亚洲",
        "source_org": "澳门卫生局",
        "source_type": "other_open_source",
        "source": "https://www.gov.mo/zh-hant/news/1269680",
        "description_cn": "澳门两所托儿所发生肠病毒群集性感染,共10名幼童发病,病情较轻,无重症。",
        "data_quality_score": 92
      }
    },
    {
      "type": "Feature",
      "id": "evt_0aa0b9270ca65e38c005",
      "geometry": {
        "type": "Point",
        "coordinates": [
          44.2,
          15.4
        ]
      },
      "properties": {
        "event_id": "evt_0aa0b9270ca65e38c005",
        "published_at": "2026-09-29",
        "disease_id": "measles",
        "disease_name_zh": "麻疹",
        "location": "也门",
        "continent": "亚洲",
        "source_org": "第一财经（转引央视新闻）",
        "source_type": "other_open_source",
        "source": "https://www.yicai.com/news/103381454.html",
        "description_cn": "也门卫生系统濒临崩溃,霍乱、登革热和麻疹疫情持续,今年麻疹疑似病例超2.2万例、死亡128例。",
        "data_quality_score": 92
      }
    },
    {
      "type": "Feature",
      "id": "evt_c33b5b3a63dc950bfc82",
      "geometry": {
        "type": "Point",
        "coordinates": [
          80.8,
          7.9
        ]
      },
      "properties": {
        "event_id": "evt_c33b5b3a63dc950bfc82",
        "published_at": "2026-09-29",
        "disease_id": "dengue",
        "disease_name_zh": "登革热",
        "location": "斯里兰卡",
        "continent": "亚洲",
        "source_org": "新华社",
        "source_type": "other_open_source",
        "source": "http://www.xinhuanet.com/english/asiapacific/20260929/ac27d2e53cd8482390a4ec3ca0eae890/c.html",
        "description_cn": "斯里兰卡卫生部通报,2026年截至9月底累计报告超10万例登革热病例,77人死亡。",
        "data_quality_score": 92
      }
    },
    {
      "type": "Feature",
      "id": "evt_916a3271939b2e0a6067",
      "geometry": {
        "type": "Point",
        "coordinates": [
          79.9,
          6.9
        ]
      },
      "properties": {
        "event_id": "evt_916a3271939b2e0a6067",
        "published_at": "2026-09-29",
        "disease_id": "dengue",
        "disease_name_zh": "登革热",
        "location": "斯里兰卡西部省",
        "continent": "亚洲",
        "source_org": "新华社",
        "source_type": "other_open_source",
        "source": "http://www.xinhuanet.com/english/asiapacific/20260929/ac27d2e53cd8482390a4ec3ca0eae890/c.html",
        "description_cn": "斯里兰卡卫生部通报,2026年截至9月底累计报告超10万例登革热病例,77人死亡。",
        "data_quality_score": 92
      }
    },
    {
      "type": "Feature",
      "id": "evt_bd3448a1359004bd3cdb",
      "geometry": {
        "type": "Point",
        "coordinates": [
          80.0,
          7.1
        ]
      },
      "properties": {
        "event_id": "evt_bd3448a1359004bd3cdb",
        "published_at": "2026-09-29",
        "disease_id": "dengue",
        "disease_name_zh": "登革热",
        "location": "加姆帕哈",
        "continent": "亚洲",
        "source_org": "新华社",
        "source_type": "other_open_source",
        "source": "http://www.xinhuanet.com/english/asiapacific/20260929/ac27d2e53cd8482390a4ec3ca0eae890/c.html",
        "description_cn": "斯里兰卡卫生部通报,2026年截至9月底累计报告超10万例登革热病例,77人死亡。",
        "data_quality_score": 92
      }
    },
    {
      "type": "Feature",
      "id": "evt_06c5a309156b4729f000",
      "geometry": {
        "type": "Point",
        "coordinates": [
          79.9,
          6.9
        ]
      },
      "properties": {
        "event_id": "evt_06c5a309156b4729f000",
        "published_at": "2026-09-29",
        "disease_id": "dengue",
        "disease_name_zh": "登革热",
        "location": "科伦坡",
        "continent": "亚洲",
        "source_org": "新华社",
        "source_type": "other_open_source",
        "source": "http://www.xinhuanet.com/english/asiapacific/20260929/ac27d2e53cd8482390a4ec3ca0eae890/c.html",
        "description_cn": "斯里兰卡卫生部通报,2026年截至9月底累计报告超10万例登革热病例,77人死亡。",
        "data_quality_score": 92
      }
    },
    {
      "type": "Feature",
      "id": "evt_2cebbbc2762bc8a18ba4",
      "geometry": {
        "type": "Point",
        "coordinates": [
          113.5,
          22.2
        ]
      },
      "properties": {
        "event_id": "evt_2cebbbc2762bc8a18ba4",
        "published_at": "2026-09-29",
        "disease_id": "influenza",
        "disease_name_zh": "流行性感冒",
        "location": "中国澳门",
        "continent": "亚洲",
        "source_org": "澳门卫生局",
        "source_type": "other_open_source",
        "source": "https://www.gov.mo/zh-hant/news/1269677",
        "description_cn": "澳门6所学校暴发流感群集性感染,共51名学生患病,2人住院。",
        "data_quality_score": 92
      }
    },
    {
      "type": "Feature",
      "id": "evt_b100466dd9b750530b10",
      "geometry": {
        "type": "Point",
        "coordinates": [
          79.9,
          6.9
        ]
      },
      "properties": {
        "event_id": "evt_b100466dd9b750530b10",
        "published_at": "2026-09-29",
        "disease_id": "dengue",
        "disease_name_zh": "登革热",
        "location": "西部省",
        "continent": "亚洲",
        "source_org": "中国日报",
        "source_type": "other_open_source",
        "source": "https://www.chinadaily.com.cn/a/202609/29/WS6abb6825e4b06d4aa0560cdd.html",
        "description_cn": "斯里兰卡2026年累计报告超10万例登革热病例,77人死亡,西部省疫情最严重。",
        "data_quality_score": 92
      }
    },
    {
      "type": "Feature",
      "id": "evt_e494e0664ac9c9304415",
      "geometry": {
        "type": "Point",
        "coordinates": [
          79.9,
          6.9
        ]
      },
      "properties": {
        "event_id": "evt_e494e0664ac9c9304415",
        "published_at": "2026-09-29",
        "disease_id": "dengue",
        "disease_name_zh": "登革热",
        "location": "科伦坡",
        "continent": "亚洲",
        "source_org": "中国日报",
        "source_type": "other_open_source",
        "source": "https://www.chinadaily.com.cn/a/202609/29/WS6abb6825e4b06d4aa0560cdd.html",
        "description_cn": "斯里兰卡2026年累计报告超10万例登革热病例,77人死亡,西部省疫情最严重。",
        "data_quality_score": 92
      }
    },
    {
      "type": "Feature",
      "id": "evt_c5fbf68a97ae10cc06d3",
      "geometry": {
        "type": "Point",
        "coordinates": [
          80.8,
          7.9
        ]
      },
      "properties": {
        "event_id": "evt_c5fbf68a97ae10cc06d3",
        "published_at": "2026-09-29",
        "disease_id": "dengue",
        "disease_name_zh": "登革热",
        "location": "斯里兰卡",
        "continent": "亚洲",
        "source_org": "中国日报",
        "source_type": "other_open_source",
        "source": "https://www.chinadaily.com.cn/a/202609/29/WS6abb6825e4b06d4aa0560cdd.html",
        "description_cn": "斯里兰卡2026年累计报告超10万例登革热病例,77人死亡,西部省疫情最严重。",
        "data_quality_score": 92
      }
    },
    {
      "type": "Feature",
      "id": "evt_5031bc824b926fa66f71",
      "geometry": {
        "type": "Point",
        "coordinates": [
          80.0,
          7.1
        ]
      },
      "properties": {
        "event_id": "evt_5031bc824b926fa66f71",
        "published_at": "2026-09-29",
        "disease_id": "dengue",
        "disease_name_zh": "登革热",
        "location": "加姆帕哈",
        "continent": "亚洲",
        "source_org": "中国日报",
        "source_type": "other_open_source",
        "source": "https://www.chinadaily.com.cn/a/202609/29/WS6abb6825e4b06d4aa0560cdd.html",
        "description_cn": "斯里兰卡2026年累计报告超10万例登革热病例,77人死亡,西部省疫情最严重。",
        "data_quality_score": 92
      }
    },
    {
      "type": "Feature",
      "id": "evt_9db1368a3dd807ff55e1",
      "geometry": {
        "type": "Point",
        "coordinates": [
          107.8,
          16.2
        ]
      },
      "properties": {
        "event_id": "evt_9db1368a3dd807ff55e1",
        "published_at": "2026-09-29",
        "disease_id": "dengue",
        "disease_name_zh": "登革热",
        "location": "越南",
        "continent": "亚洲",
        "source_org": "澳门卫生局",
        "source_type": "other_open_source",
        "source": "https://www.gov.mo/zh-hant/news/1269817",
        "description_cn": "澳门报告1例输入性登革热II型病例,患者在越南旅行时感染,现住院治疗。",
        "data_quality_score": 92
      }
    },
    {
      "type": "Feature",
      "id": "evt_8d7abd541fc79d7eb2f8",
      "geometry": {
        "type": "Point",
        "coordinates": [
          113.5,
          22.2
        ]
      },
      "properties": {
        "event_id": "evt_8d7abd541fc79d7eb2f8",
        "published_at": "2026-09-29",
        "disease_id": "dengue",
        "disease_name_zh": "登革热",
        "location": "中国澳门",
        "continent": "亚洲",
        "source_org": "澳门卫生局",
        "source_type": "other_open_source",
        "source": "https://www.gov.mo/zh-hant/news/1269817",
        "description_cn": "澳门报告1例输入性登革热II型病例,患者在越南旅行时感染,现住院治疗。",
        "data_quality_score": 92
      }
    },
    {
      "type": "Feature",
      "id": "evt_e165641fc363950be282",
      "geometry": {
        "type": "Point",
        "coordinates": [
          118.1,
          37.4
        ]
      },
      "properties": {
        "event_id": "evt_e165641fc363950be282",
        "published_at": "2026-09-29",
        "disease_id": "influenza",
        "disease_name_zh": "流行性感冒",
        "location": "中国河南省",
        "continent": "亚洲",
        "source_org": "ProMED",
        "source_type": "promed",
        "source": "https://www.promedmail.org/?alert_id=8735423",
        "description_cn": "中国河南、广东新增2例H9N2禽流感病例,均有禽类接触史,症状轻微已康复。",
        "data_quality_score": 100
      }
    },
    {
      "type": "Feature",
      "id": "evt_d25f91dcfa6973453b69",
      "geometry": {
        "type": "Point",
        "coordinates": [
          113.3,
          23.1
        ]
      },
      "properties": {
        "event_id": "evt_d25f91dcfa6973453b69",
        "published_at": "2026-09-29",
        "disease_id": "influenza",
        "disease_name_zh": "流行性感冒",
        "location": "中国广东省",
        "continent": "亚洲",
        "source_org": "ProMED",
        "source_type": "promed",
        "source": "https://www.promedmail.org/?alert_id=8735423",
        "description_cn": "中国河南、广东新增2例H9N2禽流感病例,均有禽类接触史,症状轻微已康复。",
        "data_quality_score": 100
      }
    },
    {
      "type": "Feature",
      "id": "evt_f88b6c3bb9be9eabb892",
      "geometry": {
        "type": "Point",
        "coordinates": [
          113.5,
          22.2
        ]
      },
      "properties": {
        "event_id": "evt_f88b6c3bb9be9eabb892",
        "published_at": "2026-09-29",
        "disease_id": "enterovirus-infection",
        "disease_name_zh": "肠病毒感染",
        "location": "中国澳门",
        "continent": "亚洲",
        "source_org": "GOV",
        "source_type": "other_open_source",
        "source": "https://www.gov.mo/zh-hant/news/1269789",
        "description_cn": "澳门流感及肠病毒活跃程度上升,卫生局呼吁居民接种疫苗并加强防范。",
        "data_quality_score": 92
      }
    },
    {
      "type": "Feature",
      "id": "evt_be4594dce0087df00e97",
      "geometry": {
        "type": "Point",
        "coordinates": [
          103.8,
          14.2
        ]
      },
      "properties": {
        "event_id": "evt_be4594dce0087df00e97",
        "published_at": "2026-09-29",
        "disease_id": "avian-influenza",
        "disease_name_zh": "禽流感",
        "location": "柬埔寨奥多棉吉省",
        "continent": "亚洲",
        "source_org": "Promedmail",
        "source_type": "promed",
        "source": "https://www.promedmail.org/?alert_id=8735422",
        "description_cn": "2026年09月29日 柬埔寨奥多棉吉省发生H5N1禽流感相关疫情,1例确诊",
        "data_quality_score": 100
      }
    },
    {
      "type": "Feature",
      "id": "evt_dd8406aa0bab3e1207ea",
      "geometry": {
        "type": "Point",
        "coordinates": [
          120.0,
          -5.0
        ]
      },
      "properties": {
        "event_id": "evt_dd8406aa0bab3e1207ea",
        "published_at": "2026-09-28",
        "disease_id": "influenza",
        "disease_name_zh": "流行性感冒",
        "location": "印度尼西亚",
        "continent": "亚洲",
        "source_org": "Tempo",
        "source_type": "other_open_source",
        "source": "https://en.tempo.co/read/2120490/influenza-positivity-rate-hits-56-in-indonesia-what-to-know",
        "description_cn": "印尼卫生部报告2026年第38周流感阳性率达56%,处于中等水平,以甲流H1N1pdm09为主。",
        "data_quality_score": 92
      }
    },
    {
      "type": "Feature",
      "id": "evt_037dd7d48e9f47927ae3",
      "geometry": {
        "type": "Point",
        "coordinates": [
          -120.2,
          47.3
        ]
      },
      "properties": {
        "event_id": "evt_037dd7d48e9f47927ae3",
        "published_at": "2026-09-28",
        "disease_id": "influenza",
        "disease_name_zh": "流行性感冒",
        "location": "美国华盛顿州",
        "continent": "北美洲",
        "source_org": "KUOW（西雅图公共电台）",
        "source_type": "other_open_source",
        "source": "https://www.kuow.org/health/2026-09-28/the-flu-has-arrived-early-in-washington-state",
        "description_cn": "华盛顿州流感季提前到来,9月19日当周233人因确诊流感就诊急诊。",
        "data_quality_score": 92
      }
    },
    {
      "type": "Feature",
      "id": "evt_af748754b193a0e8ce99",
      "geometry": {
        "type": "Point",
        "coordinates": [
          -122.3,
          47.6
        ]
      },
      "properties": {
        "event_id": "evt_af748754b193a0e8ce99",
        "published_at": "2026-09-28",
        "disease_id": "influenza",
        "disease_name_zh": "流行性感冒",
        "location": "西雅图",
        "continent": "北美洲",
        "source_org": "KUOW（西雅图公共电台）",
        "source_type": "other_open_source",
        "source": "https://www.kuow.org/health/2026-09-28/the-flu-has-arrived-early-in-washington-state",
        "description_cn": "华盛顿州流感季提前到来,9月19日当周233人因确诊流感就诊急诊。",
        "data_quality_score": 92
      }
    },
    {
      "type": "Feature",
      "id": "evt_df6651312ae4487180ee",
      "geometry": {
        "type": "Point",
        "coordinates": [
          138.6,
          -34.9
        ]
      },
      "properties": {
        "event_id": "evt_df6651312ae4487180ee",
        "published_at": "2026-09-28",
        "disease_id": "measles",
        "disease_name_zh": "麻疹",
        "location": "澳大利亚南澳州阿德莱德",
        "continent": "大洋洲",
        "source_org": "InDaily SA",
        "source_type": "other_open_source",
        "source": "https://www.indailysa.com.au/news/just-in/2026/09/28/latest-measles-case-at-adelaide-music-festival-while-infectious",
        "description_cn": "澳大利亚南澳州布莱顿高中暴发麻疹疫情,已确诊5例,最新患者为该校教师,曾到访阿德莱德一音乐节及医院。",
        "data_quality_score": 92
      }
    },
    {
      "type": "Feature",
      "id": "evt_ea8e229b1db6cea22b6f",
      "geometry": {
        "type": "Point",
        "coordinates": [
          23.7,
          -2.9
        ]
      },
      "properties": {
        "event_id": "evt_ea8e229b1db6cea22b6f",
        "published_at": "2026-09-28",
        "disease_id": "ebola-virus-disease",
        "disease_name_zh": "埃博拉",
        "location": "刚果民主共和国",
        "continent": "非洲",
        "source_org": "CTWANT（转载路透社）",
        "source_type": "news_media",
        "source": "https://tw.news.yahoo.com/%E5%89%9B%E6%9E%9C%E7%88%86%E7%99%BC%E5%9A%B4%E9%87%8D%E4%BC%8A%E6%B3%A2%E6%8B%89%E7%96%AB%E6%83%85-%E7%A2%BA%E8%A8%BA8067%E4%BE%8B-3901%E4%BA%BA%E6%AD%BB%E4%BA%A1-%E5%B0%88%E5%AE%B6%E7%A4%BA%E8%AD%A6-%E9%A2%A8%E9%9A%AA%E4%BB%8D%E6%9C%AA%E8%A7%A3%E9%99%A4-101224303.html",
        "description_cn": "刚果民主共和国爆发严重埃博拉疫情,确诊逾8067例,死亡近3901例,创该国历史新高。",
        "data_quality_score": 92
      }
    },
    {
      "type": "Feature",
      "id": "evt_572938ab23511644d7d6",
      "geometry": {
        "type": "Point",
        "coordinates": [
          -55.0,
          -10.0
        ]
      },
      "properties": {
        "event_id": "evt_572938ab23511644d7d6",
        "published_at": "2026-09-28",
        "disease_id": "measles",
        "disease_name_zh": "麻疹",
        "location": "萨尔瓦多",
        "continent": "南美洲",
        "source_org": "BEACON（转引自RFI）",
        "source_type": "other_open_source",
        "source": "https://beaconbio.org/en/report?filtersOpen=false&reportid=18f91f18-ad84-4cc9-b506-fa9b34adbbfe",
        "description_cn": "萨尔瓦多发热出诊咨询升至2037例,麻疹病例数维持。",
        "data_quality_score": 92
      }
    },
    {
      "type": "Feature",
      "id": "evt_58f13f1bbab95aaaddb4",
      "geometry": {
        "type": "Point",
        "coordinates": [
          127.5,
          37.0
        ]
      },
      "properties": {
        "event_id": "evt_58f13f1bbab95aaaddb4",
        "published_at": "2026-09-28",
        "disease_id": "covid-19",
        "disease_name_zh": "新型冠状病毒感染",
        "location": "韩国",
        "continent": "亚洲",
        "source_org": "Sedaily",
        "source_type": "other_open_source",
        "source": "https://en.sedaily.com/society/2026/09/28/flu-hospitalizations-jump-tenfold-in-korea-as-masks-return",
        "description_cn": "韩国流感住院436例同比近10倍,新冠住院327例,老年人群为主,两种呼吸道疾病同步蔓延。",
        "data_quality_score": 92
      }
    },
    {
      "type": "Feature",
      "id": "evt_0b19f0de4955795113c6",
      "geometry": {
        "type": "Point",
        "coordinates": [
          121.774,
          12.8797
        ]
      },
      "properties": {
        "event_id": "evt_0b19f0de4955795113c6",
        "published_at": "2026-09-28",
        "disease_id": "influenza",
        "disease_name_zh": "流行性感冒",
        "location": "菲律宾马尼拉",
        "continent": "亚洲",
        "source_org": "Inquirer",
        "source_type": "news_media",
        "source": "https://newsinfo.inquirer.net/2312763/18-new-cases-of-flu-like-illness-reported-in-manila-1955-total-cases",
        "description_cn": "菲律宾马尼拉9月28日新增18例流感样病例,年累计达1955例。",
        "data_quality_score": 92
      }
    },
    {
      "type": "Feature",
      "id": "evt_87b115e0026cb3583be8",
      "geometry": {
        "type": "Point",
        "coordinates": [
          90.4,
          23.7
        ]
      },
      "properties": {
        "event_id": "evt_87b115e0026cb3583be8",
        "published_at": "2026-09-28",
        "disease_id": "dengue",
        "disease_name_zh": "登革热",
        "location": "孟加拉国",
        "continent": "亚洲",
        "source_org": "Substack",
        "source_type": "news_media",
        "source": "https://outbreaknewstoday.substack.com/p/bangladesh-records-more-than-2000",
        "description_cn": "孟加拉国单日新增登革热2158例,2026年累计73694例,死亡225例。",
        "data_quality_score": 92
      }
    },
    {
      "type": "Feature",
      "id": "evt_6fbd753c7504edfce0c3",
      "geometry": {
        "type": "Point",
        "coordinates": [
          106.6,
          10.8
        ]
      },
      "properties": {
        "event_id": "evt_6fbd753c7504edfce0c3",
        "published_at": "2026-09-27",
        "disease_id": "dengue",
        "disease_name_zh": "登革热",
        "location": "胡志明市",
        "continent": "亚洲",
        "source_org": "越南通讯社",
        "source_type": "other_open_source",
        "source": "https://www.vietnam.vn/zh-cn/hon-34-000-ca-sot-xuat-huyet-tai-tp-hcm-canh-giac-voi-nhung-dau-hieu-nguy-hiem",
        "description_cn": "越南胡志明市2026年第38周新增登革热1462例,年初累计34161例,部分地区发病率较高,存在重症风险。",
        "data_quality_score": 92
      }
    },
    {
      "type": "Feature",
      "id": "evt_fddb5e4191bd68481fbd",
      "geometry": {
        "type": "Point",
        "coordinates": [
          107.8,
          16.2
        ]
      },
      "properties": {
        "event_id": "evt_fddb5e4191bd68481fbd",
        "published_at": "2026-09-27",
        "disease_id": "dengue",
        "disease_name_zh": "登革热",
        "location": "越南",
        "continent": "亚洲",
        "source_org": "越南通讯社",
        "source_type": "other_open_source",
        "source": "https://www.vietnam.vn/zh-cn/hon-34-000-ca-sot-xuat-huyet-tai-tp-hcm-canh-giac-voi-nhung-dau-hieu-nguy-hiem",
        "description_cn": "越南胡志明市2026年第38周新增登革热1462例,年初累计34161例,部分地区发病率较高,存在重症风险。",
        "data_quality_score": 92
      }
    },
    {
      "type": "Feature",
      "id": "evt_3632f4d5f8ad227598e8",
      "geometry": {
        "type": "Point",
        "coordinates": [
          29.9,
          1.9
        ]
      },
      "properties": {
        "event_id": "evt_3632f4d5f8ad227598e8",
        "published_at": "2026-09-26",
        "disease_id": "ebola-virus-disease",
        "disease_name_zh": "埃博拉",
        "location": "刚果民主共和国伊图里省",
        "continent": "非洲",
        "source_org": "Reuters",
        "source_type": "other_open_source",
        "source": "https://www.reuters.com/business/healthcare-pharmaceuticals/mpox-case-confirmed-northeastern-congolese-city-center-ebola-outbreak-2026-09-25",
        "description_cn": "刚果(金)伊图里省布尼亚确诊1例猴痘,21岁女性住院隔离,另有多例疑似。",
        "data_quality_score": 92
      }
    },
    {
      "type": "Feature",
      "id": "evt_766b03341d02ef251e15",
      "geometry": {
        "type": "Point",
        "coordinates": [
          121.0,
          23.7
        ]
      },
      "properties": {
        "event_id": "evt_766b03341d02ef251e15",
        "published_at": "2026-09-24",
        "disease_id": "dengue",
        "disease_name_zh": "登革热",
        "location": "中国台湾",
        "continent": "亚洲",
        "source_org": "LINE TODAY",
        "source_type": "news_media",
        "source": "https://today.line.me/tw/v3/article/5yvkWLV",
        "description_cn": "台湾彰化县今年累计15例登革热,较去年同期倍增,卫生部门已启动防疫总动员。",
        "data_quality_score": 92
      }
    },
    {
      "type": "Feature",
      "id": "evt_b1a55bd55146f543950b",
      "geometry": {
        "type": "Point",
        "coordinates": [
          29.9,
          1.9
        ]
      },
      "properties": {
        "event_id": "evt_b1a55bd55146f543950b",
        "published_at": "2019-09-29",
        "disease_id": "ebola-virus-disease",
        "disease_name_zh": "埃博拉",
        "location": "刚果民主共和国伊图里省",
        "continent": "非洲",
        "source_org": "CIDRAP",
        "source_type": "academic",
        "source": "https://www.cidrap.umn.edu/ebola/dr-congo-ebola-outbreak-tops-8000-cases-48-death-rate",
        "description_cn": "刚果民主共和国埃博拉疫情病例达8067例,死亡3901例,为历史第二大且增长最快的疫情。",
        "data_quality_score": 100
      }
    }
  ]
}
